TANSAT                  
1 41898U 16081A   26135.28253774  .00000305  00000+0  73925-4 0  9998
2 41898  98.5365 134.5691 0021717  52.9315 307.3865 14.59921320499820
JILIN-1 03              
1 41914U 17002B   26135.30145660  .00007559  00000+0  18688-3 0  9990
2 41914  97.1953 142.8700 0003699 300.5652  59.5230 15.40743977516794
CARTOSAT-2D             
1 41948U 17008A   26135.29291840  .00003325  00000+0  16104-3 0  9991
2 41948  97.4134 195.2076 0004617  11.2008 348.9329 15.19232315512587
CARTOSAT-2E             
1 42767U 17036C   26134.38820138  .00000801  00000+0  41280-4 0  9999
2 42767  97.4302 194.7423 0004437  70.2884 289.8829 15.19198867493018
IRIDIUM 113             
1 42803U 17039A   26135.10031491  .00000068  00000+0  17085-4 0  9991
2 42803  86.3969 336.0156 0002250  92.5892 267.5562 14.34217800466445
NORSAT 2                
1 42828U 17042D   26135.01412779  .00007481  00000+0  33770-3 0  9998
2 42828  97.4018 309.0032 0010327 161.3240 198.8377 15.21224871482697
TECHNOSAT               
1 42829U 17042E   26135.20178075  .00001910  00000+0  13934-3 0  9999
2 42829  97.4241 294.1275 0017226 202.8185 157.2278 15.04738397481741
FLYING LAPTOP           
1 42831U 17042G   26135.32068767  .00001855  00000+0  14969-3 0  9998
2 42831  97.4536 292.1528 0017734 233.9341 126.0241 15.00917502481526
WNISAT 1R               
1 42835U 17042L   26135.24138831  .00001586  00000+0  12668-3 0  9998
2 42835  97.4796 292.5506 0010094 276.6359  83.3716 15.01602136481564
LEMUR-2-GREENBERG       
1 42837U 17042N   26135.01032487  .00010590  00000+0  36382-3 0  9999
2 42837  97.3804 315.8196 0010349 120.7633 239.4628 15.30245355483315
LEMUR-2-FURIAUS         
1 42840U 17042R   26135.30709145  .00010054  00000+0  35809-3 0  9995
2 42840  97.3757 314.1457 0007961 171.3232 188.8147 15.29104466483184
CORVUS BC2              
1 42846U 17042X   26134.71148476  .00002062  00000+0  14506-3 0  9990
2 42846  97.4039 297.3753 0012065 221.1701 138.8617 15.06073140482029
CORVUS BC1              
1 42847U 17042Y   26135.24135600  .00001743  00000+0  12269-3 0  9994
2 42847  97.4069 298.6767 0011521 193.6684 166.4234 15.06245364482134
VRSS-2                  
1 42954U 17060A   26135.28733709  .00000718  00000+0  98672-4 0  9995
2 42954  97.6544 174.4931 0016326 202.5089 157.5410 14.81138367463585
MOHAMMED VI-A           
1 43005U 17070A   26135.28836336  .00000112  00000+0  23027-4 0  9994
2 43005  97.9569 208.0700 0001478 106.7198 253.4174 14.77091575459121
FENGYUN 3D              
1 43010U 17072A   26135.23554343  .00000096  00000+0  67413-4 0  9990
2 43010  99.0105 109.0661 0002251 116.6704 243.4702 14.19732687440314
NOAA 20 (JPSS-1)        
1 43013U 17073A   26135.29558017 -.00000013  00000+0  14963-4 0  9994
2 43013  98.7762  75.0530 0001444  48.4185 311.7115 14.19505065439804
MAKERSAT 0              
1 43016U 17073D   26135.11701872  .00017482  00000+0  48879-3 0  9996
2 43016  97.4678  17.4074 0111326  31.6362 329.1506 15.30640636461400
RADFXSAT (FOX-1B)       
1 43017U 17073E   26135.06122797  .00007053  00000+0  30997-3 0  9999
2 43017  97.4752   2.9649 0153922  83.1011 278.7702 15.12079342460385
JILIN-1 04              
1 43022U 17074A   26135.25013333  .00007597  00000+0  18291-3 0  9998
2 43022  97.4827 244.0141 0002822 328.7444  31.3634 15.41567612469199
JILIN-1 05              
1 43023U 17074B   26135.30132365  .00004837  00000+0  15261-3 0  9990
2 43023  97.4836 241.0307 0004879   1.4636 358.6620 15.33340513468967
JILIN-1 06              
1 43024U 17074C   26135.27072473  .00003560  00000+0  11310-3 0  9993
2 43024  97.4763 238.0464 0006857   9.5087 350.6284 15.33305629468792
IRIDIUM 116             
1 43072U 17083C   26135.07494853  .00000177  00000+0  56294-4 0  9996
2 43072  86.3961 335.8514 0002076  79.5988 280.5442 14.34219224439420
IRIDIUM 130             
1 43073U 17083D   26135.11300013  .00000051  00000+0  11048-4 0  9995
2 43073  86.3970 336.1075 0002246  81.8095 278.3355 14.34217810439372
LKW-2                   
1 43080U 17084A   26135.30966774  .00003346  00000+0  13329-3 0  9990
2 43080  97.1223 176.6493 0002554  46.0075 314.1374 15.25879873466672
SUPERVIEW-1 03          
1 43099U 18002A   26135.25914802  .00008158  00000+0  21131-3 0  9996
2 43099  97.3135 220.1756 0046342 300.1067  59.5589 15.38193480463303
CARTOSAT-2F             
1 43111U 18004A   26135.07839208  .00001216  00000+0  61032-4 0  9992
2 43111  97.4749 195.0309 0001671  54.3967 305.7423 15.19196707462303
LKW-3                   
1 43146U 18006A   26135.26179907  .00004450  00000+0  13541-3 0  9990
2 43146  97.6574 294.5746 0004162  72.7207 287.4490 15.34570054463666
