OBJECT_NAME,OBJECT_ID,EPOCH,MEAN_MOTION,ECCENTRICITY,INCLINATION,RA_OF_ASC_NODE,ARG_OF_PERICENTER,MEAN_ANOMALY,EPHEMERIS_TYPE,CLASSIFICATION_TYPE,NORAD_CAT_ID,ELEMENT_SET_NO,REV_AT_EPOCH,BSTAR,MEAN_MOTION_DOT,MEAN_MOTION_DDOT
TANSAT,2016-081A,2026-05-15T06:46:51.260736,14.59921320,.00217174,98.5365,134.5691,52.9315,307.3865,0,U,41898,999,49982,.7392502E-4,.305E-5,0
JILIN-1 03,2017-002B,2026-05-15T07:14:05.850240,15.40743977,.00036997,97.1953,142.8700,300.5652,59.5230,0,U,41914,999,51679,.18687822E-3,.7559E-4,0
CARTOSAT-2D,2017-008A,2026-05-15T07:01:48.149760,15.19232315,.0004617,97.4134,195.2076,11.2008,348.9329,0,U,41948,999,51258,.1610381E-3,.3325E-4,0
CARTOSAT-2E,2017-036C,2026-05-14T09:19:00.599232,15.19198867,.00044377,97.4302,194.7423,70.2884,289.8829,0,U,42767,999,49301,.41279949E-4,.801E-5,0
IRIDIUM 113,2017-039A,2026-05-15T02:24:27.208224,14.34217800,.00022501,86.3969,336.0156,92.5892,267.5562,0,U,42803,999,46644,.17085462E-4,.68E-6,0
NORSAT 2,2017-042D,2026-05-15T00:20:20.641056,15.21224871,.00103272,97.4018,309.0032,161.3240,198.8377,0,U,42828,999,48269,.33770493E-3,.7481E-4,0
TECHNOSAT,2017-042E,2026-05-15T04:50:33.856800,15.04738397,.00172261,97.4241,294.1275,202.8185,157.2278,0,U,42829,999,48174,.13934155E-3,.191E-4,0
FLYING LAPTOP,2017-042G,2026-05-15T07:41:47.414688,15.00917502,.00177347,97.4536,292.1528,233.9341,126.0241,0,U,42831,999,48152,.1496946E-3,.1855E-4,0
WNISAT 1R,2017-042L,2026-05-15T05:47:35.949984,15.01602136,.00100949,97.4796,292.5506,276.6359,83.3716,0,U,42835,999,48156,.1266771E-3,.1586E-4,0
LEMUR-2-GREENBERG,2017-042N,2026-05-15T00:14:52.068768,15.30245355,.0010349,97.3804,315.8196,120.7633,239.4628,0,U,42837,999,48331,.36382249E-3,.1059E-3,0
LEMUR-2-FURIAUS,2017-042R,2026-05-15T07:22:12.701280,15.29104466,.00079612,97.3757,314.1457,171.3232,188.8147,0,U,42840,999,48318,.35809071E-3,.10054E-3,0
CORVUS BC2,2017-042X,2026-05-14T17:04:32.283264,15.06073140,.00120659,97.4039,297.3753,221.1701,138.8617,0,U,42846,999,48202,.1450606E-3,.2062E-4,0
CORVUS BC1,2017-042Y,2026-05-15T05:47:33.158400,15.06245364,.00115215,97.4069,298.6767,193.6684,166.4234,0,U,42847,999,48213,.12268568E-3,.1743E-4,0
VRSS-2,2017-060A,2026-05-15T06:53:45.924576,14.81138367,.00163261,97.6544,174.4931,202.5089,157.5410,0,U,42954,999,46358,.98671564E-4,.718E-5,0
MOHAMMED VI-A,2017-070A,2026-05-15T06:55:14.594304,14.77091575,.00014788,97.9569,208.0700,106.7198,253.4174,0,U,43005,999,45912,.23026887E-4,.112E-5,0
FENGYUN 3D,2017-072A,2026-05-15T05:39:10.952352,14.19732687,.00022511,99.0105,109.0661,116.6704,243.4702,0,U,43010,999,44031,.67413052E-4,.96E-6,0
NOAA 20 (JPSS-1),2017-073A,2026-05-15T07:05:38.126688,14.19505065,.0001444,98.7762,75.0530,48.4185,311.7115,0,U,43013,999,43980,.14962899E-4,-.13E-6,0
MAKERSAT 0,2017-073D,2026-05-15T02:48:30.417408,15.30640636,.01113267,97.4678,17.4074,31.6362,329.1506,0,U,43016,999,46140,.48879124E-3,.17482E-3,0
RADFXSAT (FOX-1B),2017-073E,2026-05-15T01:28:10.096608,15.12079342,.0153922,97.4752,2.9649,83.1011,278.7702,0,U,43017,999,46038,.30996619E-3,.7053E-4,0
JILIN-1 04,2017-074A,2026-05-15T06:00:11.519712,15.41567612,.00028229,97.4827,244.0141,328.7444,31.3634,0,U,43022,999,46919,.18290722E-3,.7597E-4,0
JILIN-1 05,2017-074B,2026-05-15T07:13:54.363360,15.33340513,.00048792,97.4836,241.0307,1.4636,358.6620,0,U,43023,999,46896,.15261493E-3,.4837E-4,0
JILIN-1 06,2017-074C,2026-05-15T06:29:50.616672,15.33305629,.00068575,97.4763,238.0464,9.5087,350.6284,0,U,43024,999,46879,.11309582E-3,.356E-4,0
IRIDIUM 116,2017-083C,2026-05-15T01:47:55.552992,14.34219224,.00020766,86.3961,335.8514,79.5988,280.5442,0,U,43072,999,43942,.56293674E-4,.177E-5,0
IRIDIUM 130,2017-083D,2026-05-15T02:42:43.211232,14.34217810,.00022463,86.3970,336.1075,81.8095,278.3355,0,U,43073,999,43937,.11048014E-4,.51E-6,0
LKW-2,2017-084A,2026-05-15T07:25:55.292736,15.25879873,.00025547,97.1223,176.6493,46.0075,314.1374,0,U,43080,999,46667,.13328578E-3,.3346E-4,0
SUPERVIEW-1 03,2018-002A,2026-05-15T06:13:10.388928,15.38193480,.00463421,97.3135,220.1756,300.1067,59.5589,0,U,43099,999,46330,.21130619E-3,.8158E-4,0
CARTOSAT-2F,2018-004A,2026-05-15T01:52:53.075712,15.19196707,.00016715,97.4749,195.0309,54.3967,305.7423,0,U,43111,999,46230,.6103225E-4,.1216E-4,0
LKW-3,2018-006A,2026-05-15T06:16:59.439648,15.34570054,.00041627,97.6574,294.5746,72.7207,287.4490,0,U,43146,999,46366,.13540812E-3,.445E-4,0
